STARLINK-2637           
1 48356U 21038D   25069.74470809  .00011049  00000+0  75924-3 0  9995
2 48356  53.0528 195.4284 0001029  91.0554 269.0553 15.06412699212176
STARLINK-2636           
1 48357U 21038E   25069.64891694  .00003361  00000+0  24431-3 0  9999
2 48357  53.0538 196.2853 0001231  89.4901 270.6229 15.06412877212155
STARLINK-2624           
1 48358U 21038F   25069.53830355  .00006865  00000+0  47937-3 0  9993
2 48358  53.0529 196.3580 0001291  77.8101 282.3033 15.06395366212137
STARLINK-2628           
1 48359U 21038G   25069.66728780  .00017256  00000+0  11752-2 0  9997
2 48359  53.0526 195.7764 0000814  93.9032 266.2050 15.06379142212150
STARLINK-2622           
1 48360U 21038H   25069.66360699 -.00002840  00000+0 -17181-3 0  9998
2 48360  53.0531 195.7902 0001295  90.4521 269.6617 15.06411608212151
STARLINK-2591           
1 48361U 21038J   25069.65992900  .00003471  00000+0  25173-3 0  9993
2 48361  53.0539 195.8071 0001095  87.8755 272.2360 15.06405847212158
STARLINK-2578           
1 48362U 21038K   25069.62676506  .00012197  00000+0  83606-3 0  9992
2 48362  53.0546 196.0478 0001515 101.6605 258.4554 15.06410368212152
STARLINK-2626           
1 48363U 21038L   25069.57969064  .00034760  00000+0  15037-2 0  9993
2 48363  53.0556 178.6511 0001067  25.1352 334.9695 15.22146777212399
STARLINK-2611           
1 48364U 21038M   25069.64751077 -.00000527  00000+0 -16511-4 0  9991
2 48364  53.0544 191.0286 0001396  90.4821 269.6328 15.06396606212225
STARLINK-2608           
1 48365U 21038N   25069.74332763  .00014746  00000+0  10063-2 0  9990
2 48365  53.0541 190.4349 0001252  77.4309 282.6820 15.06416277212244
STARLINK-2631           
1 48366U 21038P   25069.73087269 -.00012237  00000+0 -80476-3 0  9999
2 48366  53.0533 185.4915 0001381 115.8616 244.2516 15.06367371212303
STARLINK-2643           
1 48367U 21038Q   25069.59451651  .00000762  00000+0  70055-4 0  9995
2 48367  53.0534 186.1036 0001586 100.8398 259.2769 15.06386842212282
STARLINK-2623           
1 48368U 21038R   25069.70511502 -.00002155  00000+0 -12588-3 0  9997
2 48368  53.0535 185.8893 0001327  73.2992 286.8142 15.06376210212309
STARLINK-2641           
1 48369U 21038S   25069.91668981  .01362048  00000+0  83676-2 0  9999
2 48369  53.0522 177.8077 0001259  75.2324 137.3644 15.73901117  5846
STARLINK-2621           
1 48370U 21038T   25069.58713192 -.00001560  00000+0 -85859-4 0  9996
2 48370  53.0528 186.1364 0001254 126.0028 234.1077 15.06393771212288
STARLINK-2589           
1 48371U 21038U   25069.58344826 -.00003507  00000+0 -21675-3 0  9999
2 48371  53.0530 186.1548 0001306  92.8211 267.2928 15.06384797212288
STARLINK-2609           
1 48373U 21038W   25069.64241619 -.00005205  00000+0 -33102-3 0  9999
2 48373  53.0529 185.8890 0001200 102.3647 257.7476 15.06373820212295
STARLINK-2604           
1 48374U 21038X   25069.53925241  .00008646  00000+0  59915-3 0  9998
2 48374  53.0535 186.6991 0001185  98.0535 262.0588 15.06365384212270
STARLINK-2603           
1 48375U 21038Y   25069.63505230  .00014404  00000+0  98458-3 0  9996
2 48375  53.0535 185.9254 0001408 101.1297 258.9850 15.06374858212298
STARLINK-2610           
1 48376U 21038Z   25069.69770920  .00016020  00000+0  10931-2 0  9998
2 48376  53.0526 185.6393 0001331  63.7294 296.3832 15.06359351212304
STARLINK-2499           
1 48377U 21038AA  25069.54297588 -.00002433  00000+0 -14456-3 0  9999
2 48377  53.0538 186.8378 0001575 100.6454 259.4713 15.06380881212279
STARLINK-2526           
1 48378U 21038AB  25069.62398906  .00014195  00000+0  97086-3 0  9991
2 48378  53.0533 185.9723 0001439 109.2166 250.8979 15.06363110212290
STARLINK-2612           
1 48379U 21038AC  25069.62031018 -.00004877  00000+0 -30898-3 0  9996
2 48379  53.0540 185.9874 0001310  79.2253 280.8884 15.06375388212295
STARLINK-2614           
1 48380U 21038AD  25069.62774588  .00014757  00000+0  10083-2 0  9993
2 48380  53.0528 186.4668 0001452 108.6927 251.4220 15.06371095212280
STARLINK-2630           
1 48381U 21038AE  25069.55028048 -.00003192  00000+0 -19560-3 0  9992
2 48381  53.0538 186.3015 0001473  98.7774 261.3382 15.06381664212281
STARLINK-2585           
1 48382U 21038AF  25069.74562808  .00014029  00000+0  95967-3 0  9995
2 48382  53.0537 185.4270 0001359 103.8961 256.2179 15.06366994212313
STARLINK-2598           
1 48385U 21038AJ  25069.60188466  .00015337  00000+0  10469-2 0  9993
2 48385  53.0535 186.0711 0001343 105.0030 255.1107 15.06377486213515
STARLINK-2606           
1 48386U 21038AK  25069.58944631 -.00001352  00000+0 -71935-4 0  9996
2 48386  53.0529 181.1357 0001315  95.2987 264.8152 15.06380273212357
STARLINK-2594           
1 48388U 21038AM  25069.61523745  .00014733  00000+0  10069-2 0  9995
2 48388  53.0530 181.0133 0001358 107.7055 252.4082 15.06363086212363
STARLINK-2586           
1 48390U 21038AP  25069.66547897  .00012299  00000+0  84366-3 0  9994
2 48390  53.0539 175.7860 0001583  96.0475 264.0694 15.06377452213651
