OBJECT_NAME,OBJECT_ID,EPOCH,MEAN_MOTION,ECCENTRICITY,INCLINATION,RA_OF_ASC_NODE,ARG_OF_PERICENTER,MEAN_ANOMALY,EPHEMERIS_TYPE,CLASSIFICATION_TYPE,NORAD_CAT_ID,ELEMENT_SET_NO,REV_AT_EPOCH,BSTAR,MEAN_MOTION_DOT,MEAN_MOTION_DDOT
STARLINK-2637,2021-038D,2025-03-10T17:52:22.778976,15.06412699,.0001029,53.0528,195.4284,91.0554,269.0553,0,U,48356,999,21217,.75924E-3,.11049E-3,0
STARLINK-2636,2021-038E,2025-03-10T15:34:26.423616,15.06412877,.0001231,53.0538,196.2853,89.4901,270.6229,0,U,48357,999,21215,.24431E-3,.3361E-4,0
STARLINK-2624,2021-038F,2025-03-10T12:55:09.426720,15.06395366,.0001291,53.0529,196.3580,77.8101,282.3033,0,U,48358,999,21213,.47937E-3,.6865E-4,0
STARLINK-2628,2021-038G,2025-03-10T16:00:53.665920,15.06379142,.0000814,53.0526,195.7764,93.9032,266.2050,0,U,48359,999,21215,.11752E-2,.17256E-3,0
STARLINK-2622,2021-038H,2025-03-10T15:55:35.643936,15.06411608,.0001295,53.0531,195.7902,90.4521,269.6617,0,U,48360,999,21215,-.17181E-3,-.284E-4,0
STARLINK-2591,2021-038J,2025-03-10T15:50:17.865600,15.06405847,.0001095,53.0539,195.8071,87.8755,272.2360,0,U,48361,999,21215,.25173E-3,.3471E-4,0
STARLINK-2578,2021-038K,2025-03-10T15:02:32.501184,15.06410368,.0001515,53.0546,196.0478,101.6605,258.4554,0,U,48362,999,21215,.83606E-3,.12197E-3,0
STARLINK-2626,2021-038L,2025-03-10T13:54:45.271296,15.22146777,.0001067,53.0556,178.6511,25.1352,334.9695,0,U,48363,999,21239,.15037E-2,.3476E-3,0
STARLINK-2611,2021-038M,2025-03-10T15:32:24.930528,15.06396606,.0001396,53.0544,191.0286,90.4821,269.6328,0,U,48364,999,21222,-.16511E-4,-.527E-5,0
STARLINK-2608,2021-038N,2025-03-10T17:50:23.507232,15.06416277,.0001252,53.0541,190.4349,77.4309,282.6820,0,U,48365,999,21224,.10063E-2,.14746E-3,0
STARLINK-2631,2021-038P,2025-03-10T17:32:27.400416,15.06367371,.0001381,53.0533,185.4915,115.8616,244.2516,0,U,48366,999,21230,-.80476E-3,-.12237E-3,0
STARLINK-2643,2021-038Q,2025-03-10T14:16:06.226464,15.06386842,.0001586,53.0534,186.1036,100.8398,259.2769,0,U,48367,999,21228,.70055E-4,.762E-5,0
STARLINK-2623,2021-038R,2025-03-10T16:55:21.937728,15.06376210,.0001327,53.0535,185.8893,73.2992,286.8142,0,U,48368,999,21230,-.12588E-3,-.2155E-4,0
STARLINK-2641,2021-038S,2025-03-10T22:00:01.999584,15.73901117,.0001259,53.0522,177.8077,75.2324,137.3644,0,U,48369,999,584,.83676E-2,.1362048E-1,0
STARLINK-2621,2021-038T,2025-03-10T14:05:28.197888,15.06393771,.0001254,53.0528,186.1364,126.0028,234.1077,0,U,48370,999,21228,-.85859E-4,-.156E-4,0
STARLINK-2589,2021-038U,2025-03-10T14:00:09.929664,15.06384797,.0001306,53.0530,186.1548,92.8211,267.2928,0,U,48371,999,21228,-.21675E-3,-.3507E-4,0
STARLINK-2609,2021-038W,2025-03-10T15:25:04.758816,15.06373820,.00012,53.0529,185.8890,102.3647,257.7476,0,U,48373,999,21229,-.33102E-3,-.5205E-4,0
STARLINK-2604,2021-038X,2025-03-10T12:56:31.408224,15.06365384,.0001185,53.0535,186.6991,98.0535,262.0588,0,U,48374,999,21227,.59915E-3,.8646E-4,0
STARLINK-2603,2021-038Y,2025-03-10T15:14:28.518720,15.06374858,.0001408,53.0535,185.9254,101.1297,258.9850,0,U,48375,999,21229,.98458E-3,.14404E-3,0
STARLINK-2610,2021-038Z,2025-03-10T16:44:42.074880,15.06359351,.0001331,53.0526,185.6393,63.7294,296.3832,0,U,48376,999,21230,.10931E-2,.1602E-3,0
STARLINK-2499,2021-038AA,2025-03-10T13:01:53.116032,15.06380881,.0001575,53.0538,186.8378,100.6454,259.4713,0,U,48377,999,21227,-.14456E-3,-.2433E-4,0
STARLINK-2526,2021-038AB,2025-03-10T14:58:32.654784,15.06363110,.0001439,53.0533,185.9723,109.2166,250.8979,0,U,48378,999,21229,.97086E-3,.14195E-3,0
STARLINK-2612,2021-038AC,2025-03-10T14:53:14.799552,15.06375388,.000131,53.0540,185.9874,79.2253,280.8884,0,U,48379,999,21229,-.30898E-3,-.4877E-4,0
STARLINK-2614,2021-038AD,2025-03-10T15:03:57.244032,15.06371095,.0001452,53.0528,186.4668,108.6927,251.4220,0,U,48380,999,21228,.10083E-2,.14757E-3,0
STARLINK-2630,2021-038AE,2025-03-10T13:12:24.233472,15.06381664,.0001473,53.0538,186.3015,98.7774,261.3382,0,U,48381,999,21228,-.1956E-3,-.3192E-4,0
STARLINK-2585,2021-038AF,2025-03-10T17:53:42.266112,15.06366994,.0001359,53.0537,185.4270,103.8961,256.2179,0,U,48382,999,21231,.95967E-3,.14029E-3,0
STARLINK-2598,2021-038AJ,2025-03-10T14:26:42.834624,15.06377486,.0001343,53.0535,186.0711,105.0030,255.1107,0,U,48385,999,21351,.10469E-2,.15337E-3,0
STARLINK-2606,2021-038AK,2025-03-10T14:08:48.161184,15.06380273,.0001315,53.0529,181.1357,95.2987,264.8152,0,U,48386,999,21235,-.71935E-4,-.1352E-4,0
STARLINK-2594,2021-038AM,2025-03-10T14:45:56.515680,15.06363086,.0001358,53.0530,181.0133,107.7055,252.4082,0,U,48388,999,21236,.10069E-2,.14733E-3,0
STARLINK-2586,2021-038AP,2025-03-10T15:58:17.383008,15.06377452,.0001583,53.0539,175.7860,96.0475,264.0694,0,U,48390,999,21365,.84366E-3,.12299E-3,0
